NORAD_CAT_ID,OBJECT_NAME,OBJECT_TYPE,EPOCH,MEAN_MOTION,ECCENTRICITY,INCLINATION,RA_OF_ASC_NODE,ARG_OF_PERICENTER,MEAN_ANOMALY,BSTAR,MEAN_MOTION_DOT,MEAN_MOTION_DDOT,TLE_LINE0,TLE_LINE1,TLE_LINE2,SEMIMAJOR_AXIS,PERIOD,APOGEE,PERIGEE,DECAYED
52599.0,STARLINK-4024,PAYLOAD,2023-05-08 11:42:55,15.08845077,6.23e-05,53.2162,250.9092,139.9664,220.1374,9.5809e-05,1.238e-05,0.0,0 STARLINK-4024,1 52599U 22052B   23128.48813749  .00001238  00000-0  95809-4 0  9990,2 52599  53.2162 250.9092 0000623 139.9664 220.1374 15.08845077 54796,6917.865,95.437,540.161,539.299,0.0
52599.0,STARLINK-4024,PAYLOAD,2023-05-08 14:53:41,15.0884919,5.11e-05,53.2151,250.3194,59.709,300.3952,0.00026918,4e-05,0.0,0 STARLINK-4024,1 52599U 22052B   23128.62061731  .00004000  00000-0  26918-3 0  9996,2 52599  53.2151 250.3194 0000511  59.7090 300.3952 15.08849190 55243,6917.852,95.437,540.071,539.364,0.0
52599.0,STARLINK-4024,PAYLOAD,2023-05-09 13:09:05,15.08841634,6.13e-05,53.2162,246.1549,60.2017,299.9036,0.00016322,2.311e-05,0.0,0 STARLINK-4024,1 52599U 22052B   23129.54798030  .00002311  00000-0  16322-3 0  9998,2 52599  53.2162 246.1549 0000613  60.2017 299.9036 15.08841634 55387,6917.875,95.437,540.164,539.316,0.0
52599.0,STARLINK-4024,PAYLOAD,2023-05-10 12:59:52,15.08841206,4.54e-05,53.2155,241.6952,88.899,271.2054,-5.8914e-05,-1.225e-05,0.0,0 STARLINK-4024,1 52599U 22052B   23130.54157888 -.00001225  00000-0 -58914-4 0  9999,2 52599  53.2155 241.6952 0000454  88.8990 271.2054 15.08841206 55531,6917.877,95.437,540.056,539.428,0.0
52599.0,STARLINK-4024,PAYLOAD,2023-05-10 14:35:15,15.08833635,6.08e-05,53.215,241.3987,101.0115,259.0945,0.00038169,5.791e-05,0.0,0 STARLINK-4024,1 52599U 22052B   23130.60782335  .00005791  00000-0  38169-3 0  9996,2 52599  53.2150 241.3987 0000608 101.0115 259.0945 15.08833635 55113,6917.9,95.438,540.185,539.344,0.0
52599.0,STARLINK-4024,PAYLOAD,2023-05-11 11:15:16,15.08840405,4.97e-05,53.2159,237.5314,89.1299,270.975,-3.0911e-05,-7.79e-06,0.0,0 STARLINK-4024,1 52599U 22052B   23131.46894056 -.00000779  00000-0 -30911-4 0  9996,2 52599  53.2159 237.5314 0000497  89.1299 270.9750 15.08840405 55678,6917.879,95.438,540.088,539.4,0.0
52599.0,STARLINK-4024,PAYLOAD,2023-05-11 12:50:39,15.08842036,5.23e-05,53.2164,237.2333,77.2657,282.8393,-1.8053e-05,-5.75e-06,0.0,0 STARLINK-4024,1 52599U 22052B   23131.53517969 -.00000575  00000-0 -18053-4 0  9996,2 52599  53.2164 237.2333 0000523  77.2657 282.8393 15.08842036 55686,6917.874,95.437,540.101,539.377,0.0
52599.0,STARLINK-4024,PAYLOAD,2023-05-11 23:58:21,15.08840358,7.25e-05,53.2166,235.1552,100.6444,259.4629,8.7749e-05,1.109e-05,0.0,0 STARLINK-4024,1 52599U 22052B   23131.99886101  .00001109  00000-0  87749-4 0  9993,2 52599  53.2166 235.1552 0000725 100.6444 259.4629 15.08840358 55325,6917.879,95.438,540.246,539.243,0.0
52599.0,STARLINK-4024,PAYLOAD,2023-05-13 12:32:13,15.08851147,5.32e-05,53.2167,228.3116,94.2124,265.8929,3.8589e-05,3.27e-06,0.0,0 STARLINK-4024,1 52599U 22052B   23133.52237611  .00000327  00000-0  38589-4 0  9999,2 52599  53.2167 228.3116 0000532  94.2124 265.8929 15.08851147 55989,6917.846,95.437,540.079,539.343,0.0
52599.0,STARLINK-4024,PAYLOAD,2023-05-13 14:07:36,15.0883024,6.85e-05,53.2168,228.0142,104.2227,255.8841,0.00039662,6.028e-05,0.0,0 STARLINK-4024,1 52599U 22052B   23133.58861913  .00006028  00000-0  39662-3 0  9999,2 52599  53.2168 228.0142 0000685 104.2227 255.8841 15.08830240 55568,6917.91,95.438,540.249,539.301,0.0
52599.0,STARLINK-4024,PAYLOAD,2023-05-14 12:23:00,15.08840989,5.41e-05,53.217,223.8516,98.2705,261.8348,3.3336e-05,2.43e-06,0.0,0 STARLINK-4024,1 52599U 22052B   23134.51598115  .00000243  00000-0  33336-4 0  9990,2 52599  53.2170 223.8516 0000541  98.2705 261.8348 15.08840989 56137,6917.877,95.437,540.117,539.368,0.0
52599.0,STARLINK-4024,PAYLOAD,2023-05-15 12:13:48,15.08840127,6.34e-05,53.216,219.3931,88.8869,271.2196,-3.4944e-05,-8.44e-06,0.0,0 STARLINK-4024,1 52599U 22052B   23135.50958441 -.00000844  00000-0 -34944-4 0  9997,2 52599  53.2160 219.3931 0000634  88.8869 271.2196 15.08840127 55854,6917.88,95.438,540.184,539.306,0.0
52599.0,STARLINK-4024,PAYLOAD,2023-05-15 15:24:34,15.08837939,5.7e-05,53.216,218.7979,111.1641,248.9412,3.4006e-05,2.54e-06,0.0,0 STARLINK-4024,1 52599U 22052B   23135.64206298  .00000254  00000-0  34006-4 0  9990,2 52599  53.2160 218.7979 0000570 111.1641 248.9412 15.08837939 56306,6917.887,95.438,540.146,539.357,0.0
52599.0,STARLINK-4024,PAYLOAD,2023-05-16 05:43:03,15.08828375,8.51e-05,53.2162,216.1205,92.7499,267.359,7.4302e-05,8.95e-06,0.0,0 STARLINK-4024,1 52599U 22052B   23136.23823034  .00000895  00000-0  74302-4 0  9993,2 52599  53.2162 216.1205 0000851  92.7499 267.3590 15.08828375 55966,6917.916,95.438,540.37,539.192,0.0
52599.0,STARLINK-4024,PAYLOAD,2023-05-16 12:04:35,15.08831952,7.99e-05,53.217,214.931,86.3113,273.7971,5.677e-05,6.16e-06,0.0,0 STARLINK-4024,1 52599U 22052B   23136.50318902  .00000616  00000-0  56770-4 0  9996,2 52599  53.2170 214.9310 0000799  86.3113 273.7971 15.08831952 56433,6917.905,95.438,540.323,539.217,0.0
52599.0,STARLINK-4024,PAYLOAD,2023-05-16 21:36:54,15.08839302,8.78e-05,53.2172,213.1472,91.6977,268.4116,2.0064e-05,3.2e-07,0.0,0 STARLINK-4024,1 52599U 22052B   23136.90062634  .00000032  00000-0  20064-4 0  9997,2 52599  53.2172 213.1472 0000878  91.6977 268.4116 15.08839302 56495,6917.883,95.438,540.355,539.14,0.0
52599.0,STARLINK-4024,PAYLOAD,2023-05-17 21:27:41,15.08836521,7.89e-05,53.2167,208.6887,85.3735,274.7347,-2.9531e-06,-3.35e-06,0.0,0 STARLINK-4024,1 52599U 22052B   23137.89423104 -.00000335  00000-0 -29531-5 0  9996,2 52599  53.2167 208.6887 0000789  85.3735 274.7347 15.08836521 56644,6917.891,95.438,540.302,539.21,0.0
52599.0,STARLINK-4024,PAYLOAD,2023-05-18 10:10:47,15.08830838,8.63e-05,53.2169,206.3105,102.9685,257.1404,1.8391e-05,5e-08,0.0,0 STARLINK-4024,1 52599U 22052B   23138.42415635  .00000005  00000-0  18391-4 0  9999,2 52599  53.2169 206.3105 0000863 102.9685 257.1404 15.08830838 56292,6917.908,95.438,540.37,539.176,0.0
52599.0,STARLINK-4024,PAYLOAD,2023-05-18 13:21:33,15.08832723,8.18e-05,53.2167,205.716,93.2132,266.8954,3.22e-05,2.25e-06,0.0,0 STARLINK-4024,1 52599U 22052B   23138.55663557  .00000225  00000-0  32200-4 0  9990,2 52599  53.2167 205.7160 0000818  93.2132 266.8954 15.08832723 56745,6917.903,95.438,540.334,539.202,0.0
52599.0,STARLINK-4024,PAYLOAD,2023-05-18 14:56:56,15.08833911,8.58e-05,53.2168,205.418,96.7493,263.3597,3.9525e-05,3.41e-06,0.0,0 STARLINK-4024,1 52599U 22052B   23138.62287467  .00000341  00000-0  39525-4 0  9996,2 52599  53.2168 205.4180 0000858  96.7493 263.3597 15.08833911 56753,6917.899,95.438,540.358,539.17,0.0
52599.0,STARLINK-4024,PAYLOAD,2023-05-19 03:40:01,15.08842222,8.93e-05,53.2171,203.0392,98.2928,261.8166,4.4742e-05,4.24e-06,0.0,0 STARLINK-4024,1 52599U 22052B   23139.15279010  .00000424  00000-0  44742-4 0  9999,2 52599  53.2171 203.0392 0000893  98.2928 261.8166 15.08842222 56407,6917.874,95.437,540.356,539.121,0.0
52599.0,STARLINK-4024,PAYLOAD,2023-05-19 21:09:15,15.08840682,8.79e-05,53.2169,199.7681,79.0853,281.0238,6.1919e-05,6.98e-06,0.0,0 STARLINK-4024,1 52599U 22052B   23139.88142997  .00000698  00000-0  61919-4 0  9990,2 52599  53.2169 199.7681 0000879  79.0853 281.0238 15.08840682 56945,6917.878,95.438,540.351,539.135,0.0
52599.0,STARLINK-4024,PAYLOAD,2023-05-20 09:52:20,15.0884112,7.38e-05,53.2162,197.3891,78.7871,281.3204,7.3043e-05,8.75e-06,0.0,0 STARLINK-4024,1 52599U 22052B   23140.41134994  .00000875  00000-0  73043-4 0  9997,2 52599  53.2162 197.3891 0000738  78.7871 281.3204 15.08841120 56590,6917.877,95.437,540.253,539.231,0.0
52599.0,STARLINK-4024,PAYLOAD,2023-05-20 21:00:02,15.08848162,9.26e-05,53.2169,195.3079,76.9461,283.1634,9.5947e-05,1.24e-05,0.0,0 STARLINK-4024,1 52599U 22052B   23140.87502406  .00001240  00000-0  95947-4 0  9998,2 52599  53.2169 195.3079 0000926  76.9461 283.1634 15.08848162 57093,6917.855,95.437,540.361,539.08,0.0
52599.0,STARLINK-4024,PAYLOAD,2023-05-21 09:43:07,15.08847957,9.93e-05,53.2169,192.929,78.1578,281.9526,6.0365e-05,6.73e-06,0.0,0 STARLINK-4024,1 52599U 22052B   23141.40494324  .00000673  00000-0  60365-4 0  9992,2 52599  53.2169 192.9290 0000993  78.1578 281.9526 15.08847957 57174,6917.856,95.437,540.408,539.034,0.0
52599.0,STARLINK-4024,PAYLOAD,2023-05-21 20:50:49,15.08842494,9.69e-05,53.2166,190.8476,76.1348,283.9751,1.9625e-05,2.5e-07,0.0,0 STARLINK-4024,1 52599U 22052B   23141.86862631  .00000025  00000-0  19625-4 0  9996,2 52599  53.2166 190.8476 0000969  76.1348 283.9751 15.08842494 57241,6917.873,95.437,540.408,539.067,0.0
52599.0,STARLINK-4024,PAYLOAD,2023-05-22 09:33:55,15.08835363,0.0001104,53.2172,188.4689,77.1343,282.9772,-3.0761e-05,-7.77e-06,0.0,0 STARLINK-4024,1 52599U 22052B   23142.39855325 -.00000777  00000-0 -30761-4 0  9997,2 52599  53.2172 188.4689 0001104  77.1343 282.9772 15.08835363 56894,6917.895,95.438,540.523,538.996,0.0
52599.0,STARLINK-4024,PAYLOAD,2023-05-23 09:24:41,15.08838609,9.51e-05,53.2163,184.0076,102.0057,258.1041,1.6567e-05,-2.4e-07,0.0,0 STARLINK-4024,1 52599U 22052B   23143.39215001 -.00000024  00000-0  16567-4 0  9991,2 52599  53.2163 184.0076 0000951 102.0057 258.1041 15.08838609 57043,6917.885,95.438,540.408,539.092,0.0
52599.0,STARLINK-4024,PAYLOAD,2023-05-24 02:53:56,15.08830266,9.71e-05,53.2168,180.7344,107.7478,252.362,7.5613e-05,9.16e-06,0.0,0 STARLINK-4024,1 52599U 22052B   23144.12079524  .00000916  00000-0  75613-4 0  9997,2 52599  53.2168 180.7344 0000971 107.7478 252.3620 15.08830266 57152,6917.91,95.438,540.447,539.103,0.0
52599.0,STARLINK-4024,PAYLOAD,2023-05-24 07:40:06,15.08830531,9.6e-05,53.2167,179.8422,107.5617,252.548,7.59e-05,9.2e-06,0.0,0 STARLINK-4024,1 52599U 22052B   23144.31951657  .00000920  00000-0  75900-4 0  9998,2 52599  53.2167 179.8422 0000960 107.5617 252.5480 15.08830531 57610,6917.909,95.438,540.438,539.11,0.0
